[{"OBJECT_NAME":"TIANQI-27","OBJECT_ID":"2024-102C","EPOCH":"2026-03-09T22:22:51.077568","MEAN_MOTION":13.99134937,"ECCENTRICITY":0.00055536,"INCLINATION":44.9799,"RA_OF_ASC_NODE":343.079,"ARG_OF_PERICENTER":146.4179,"MEAN_ANOMALY":213.7006,"EPHEMERIS_TYPE":0,"CLASSIFICATION_TYPE":"U","NORAD_CAT_ID":59911,"ELEMENT_SET_NO":999,"REV_AT_EPOCH":9100,"BSTAR":0.00025003711,"MEAN_MOTION_DOT":2.36e-6,"MEAN_MOTION_DDOT":0},{"OBJECT_NAME":"SL-14 DEB","OBJECT_ID":"1986-101J","EPOCH":"2026-03-09T02:04:21.920448","MEAN_MOTION":13.95325447,"ECCENTRICITY":0.0030134,"INCLINATION":82.5253,"RA_OF_ASC_NODE":292.355,"ARG_OF_PERICENTER":161.8093,"MEAN_ANOMALY":351.3106,"EPHEMERIS_TYPE":0,"CLASSIFICATION_TYPE":"U","NORAD_CAT_ID":17274,"ELEMENT_SET_NO":999,"REV_AT_EPOCH":98531,"BSTAR":0.00057033889,"MEAN_MOTION_DOT":7.9e-6,"MEAN_MOTION_DDOT":0}]
